{
    "links": {
        "self": "http://www.neowsapp.com/rest/v1/neo/3788034?api_key=iIulBulltgU6a56xZRHN4H3l9WmuAYTsLGpBGhQ2"
    },
    "id": "3788034",
    "neo_reference_id": "3788034",
    "name": "(2017 US5)",
    "designation": "2017 US5",
    "nasa_jpl_url": "http://ssd.jpl.nasa.gov/sbdb.cgi?sstr=3788034",
    "absolute_magnitude_h": 26.5,
    "estimated_diameter": {
        "kilometers": {
            "estimated_diameter_min": 0.0133215567,
            "estimated_diameter_max": 0.0297879063
        },
        "meters": {
            "estimated_diameter_min": 13.3215566698,
            "estimated_diameter_max": 29.7879062798
        },
        "miles": {
            "estimated_diameter_min": 0.008277629,
            "estimated_diameter_max": 0.0185093411
        },
        "feet": {
            "estimated_diameter_min": 43.7058959846,
            "estimated_diameter_max": 97.7293544391
        }
    },
    "is_potentially_hazardous_asteroid": false,
    "close_approach_data": [
        {
            "close_approach_date": "2015-11-03",
            "close_approach_date_full": "2015-Nov-03 00:10",
            "epoch_date_close_approach": 1446509400000,
            "relative_velocity": {
                "kilometers_per_second": "15.1140302666",
                "kilometers_per_hour": "54410.5089596023",
                "miles_per_hour": "33808.5743032596"
            },
            "miss_distance": {
                "astronomical": "0.2934813088",
                "lunar": "114.1642291232",
                "kilometers": "43904178.681292256",
                "miles": "27280791.6054388928"
            },
            "orbiting_body": "Earth"
        },
        {
            "close_approach_date": "2017-10-15",
            "close_approach_date_full": "2017-Oct-15 16:38",
            "epoch_date_close_approach": 1508085480000,
            "relative_velocity": {
                "kilometers_per_second": "8.654119425",
                "kilometers_per_hour": "31154.8299299876",
                "miles_per_hour": "19358.3997417748"
            },
            "miss_distance": {
                "astronomical": "0.0566531866",
                "lunar": "22.0380895874",
                "kilometers": "8475196.044072542",
                "miles": "5266242.6228713996"
            },
            "orbiting_body": "Earth"
        }
    ],
    "orbital_data": {
        "orbit_id": "2",
        "orbit_determination_date": "2019-07-17 06:12:23",
        "first_observation_date": "2017-10-23",
        "last_observation_date": "2017-10-27",
        "data_arc_in_days": 4,
        "observations_used": 27,
        "orbit_uncertainty": "8",
        "minimum_orbit_intersection": ".0566002",
        "jupiter_tisserand_invariant": "4.332",
        "epoch_osculation": "2458052.5",
        "eccentricity": ".3473401917319192",
        "semi_major_axis": "1.563932536408753",
        "inclination": "12.2564506339322",
        "ascending_node_longitude": "29.91243423908479",
        "orbital_period": "714.3736865141271",
        "perihelion_distance": "1.02071590935675",
        "perihelion_argument": "327.4568466419133",
        "aphelion_distance": "2.107149163460756",
        "perihelion_time": "2458019.559959067017",
        "mean_anomaly": "16.59973618812648",
        "mean_motion": ".5039379344396957",
        "equinox": "J2000",
        "orbit_class": {
            "orbit_class_type": "AMO",
            "orbit_class_description": "Near-Earth asteroid orbits similar to that of 1221 Amor",
            "orbit_class_range": "1.017 AU < q (perihelion) < 1.3 AU"
        }
    },
    "is_sentry_object": false
}